NORAD_CAT_ID,OBJECT_NAME,OBJECT_TYPE,EPOCH,MEAN_MOTION,ECCENTRICITY,INCLINATION,RA_OF_ASC_NODE,ARG_OF_PERICENTER,MEAN_ANOMALY,BSTAR,MEAN_MOTION_DOT,MEAN_MOTION_DDOT,TLE_LINE0,TLE_LINE1,TLE_LINE2,SEMIMAJOR_AXIS,PERIOD,APOGEE,PERIGEE,DECAYED
53567.0,STARLINK-4585,PAYLOAD,2023-02-12 09:03:32,15.0884327,0.0001429,53.2196,47.99,97.3412,262.7742,3.3088e-05,2.39e-06,0.0,0 STARLINK-4585,1 53567U 22101AS  23043.37746394  .00000239  00000-0  33088-4 0  9997,2 53567  53.2196  47.9900 0001429  97.3412 262.7742 15.08843270 27169,6917.87,95.437,540.724,538.747,0.0
53567.0,STARLINK-4585,PAYLOAD,2023-02-13 00:57:25,15.08835997,0.0001715,53.222,45.0175,104.7784,255.3398,-0.00016657,-2.938e-05,0.0,0 STARLINK-4585,1 53567U 22101AS  23044.03987798 -.00002938  00000-0 -16657-3 0  9998,2 53567  53.2220  45.0175 0001715 104.7784 255.3398 15.08835997 27266,6917.893,95.438,540.944,538.571,0.0
53567.0,STARLINK-4585,PAYLOAD,2023-02-13 10:29:43,15.08848415,0.0001279,53.22,43.2308,105.0572,255.0562,-0.00010708,-1.992e-05,0.0,0 STARLINK-4585,1 53567U 22101AS  23044.43730638 -.00001992  00000-0 -10708-3 0  9991,2 53567  53.2200  43.2308 0001279 105.0572 255.0562 15.08848415 27322,6917.855,95.437,540.604,538.835,0.0
53567.0,STARLINK-4585,PAYLOAD,2023-02-14 00:48:12,15.08829013,0.0001666,53.2183,40.5546,98.1208,261.9973,0.00010678,1.411e-05,0.0,0 STARLINK-4585,1 53567U 22101AS  23045.03347441  .00001411  00000-0  10678-3 0  9994,2 53567  53.2183  40.5546 0001666  98.1208 261.9973 15.08829013 27419,6917.914,95.438,540.931,538.626,0.0
53567.0,STARLINK-4585,PAYLOAD,2023-02-15 07:00:31,15.08843863,0.0001112,53.2196,34.9059,82.3559,277.756,0.00012199,1.654e-05,0.0,0 STARLINK-4585,1 53567U 22101AS  23046.29202887  .00001654  00000-0  12199-3 0  9996,2 53567  53.2196  34.9059 0001112  82.3559 277.7560 15.08843863 27606,6917.869,95.437,540.503,538.964,0.0
53567.0,STARLINK-4585,PAYLOAD,2023-02-15 11:46:40,15.08853752,0.0001207,53.2195,34.0144,84.3073,275.8057,0.00016399,2.324e-05,0.0,0 STARLINK-4585,1 53567U 22101AS  23046.49074075  .00002324  00000-0  16399-3 0  9995,2 53567  53.2195  34.0144 0001207  84.3073 275.8057 15.08853752 27630,6917.838,95.437,540.538,538.868,0.0
53567.0,STARLINK-4585,PAYLOAD,2023-02-15 18:08:14,15.08833619,0.0001282,53.2196,32.8243,93.5238,266.5901,-1.2007e-05,-4.79e-06,0.0,0 STARLINK-4585,1 53567U 22101AS  23046.75571807 -.00000479  00000-0 -12007-4 0  9993,2 53567  53.2196  32.8243 0001282  93.5238 266.5901 15.08833619 27674,6917.9,95.438,540.652,538.878,0.0
53567.0,STARLINK-4585,PAYLOAD,2023-02-15 21:18:59,15.08844138,0.0001229,53.2194,32.2301,89.9477,270.1656,0.00011608,1.56e-05,0.0,0 STARLINK-4585,1 53567U 22101AS  23046.88818747  .00001560  00000-0  11608-3 0  9999,2 53567  53.2194  32.2301 0001229  89.9477 270.1656 15.08844138 27694,6917.868,95.437,540.583,538.883,0.0
53567.0,STARLINK-4585,PAYLOAD,2023-02-16 02:05:08,15.08852005,0.0001133,53.2195,31.3379,103.7148,256.397,0.00017465,2.494e-05,0.0,0 STARLINK-4585,1 53567U 22101AS  23047.08689908  .00002494  00000-0  17465-3 0  9991,2 53567  53.2195  31.3379 0001133 103.7148 256.3970 15.08852005 27725,6917.844,95.437,540.492,538.925,0.0
53567.0,STARLINK-4585,PAYLOAD,2023-02-16 10:02:01,15.08876235,0.0001089,53.2196,29.8511,93.4132,266.6985,0.00031701,4.766e-05,0.0,0 STARLINK-4585,1 53567U 22101AS  23047.41807499  .00004766  00000-0  31701-3 0  9998,2 53567  53.2196  29.8511 0001089  93.4132 266.6985 15.08876235 27770,6917.77,95.435,540.388,538.881,0.0
53567.0,STARLINK-4585,PAYLOAD,2023-02-16 17:59:02,15.08816649,0.0001213,53.2198,28.3652,104.3224,255.7903,-0.00029324,-4.949e-05,0.0,0 STARLINK-4585,1 53567U 22101AS  23047.74933458 -.00004949  00000-0 -29324-3 0  9992,2 53567  53.2198  28.3652 0001213 104.3224 255.7903 15.08816649 27823,6917.952,95.439,540.656,538.978,0.0
53567.0,STARLINK-4585,PAYLOAD,2023-02-16 21:09:50,15.08801538,8.33e-05,53.2198,27.7702,83.9805,276.1282,-0.00042716,-7.072e-05,0.0,0 STARLINK-4585,1 53567U 22101AS  23047.88183062 -.00007072  00000-0 -42716-3 0  9995,2 53567  53.2198  27.7702 0000833  83.9805 276.1282 15.08801538 27846,6917.998,95.44,540.439,539.287,0.0
53567.0,STARLINK-4585,PAYLOAD,2023-02-17 05:06:45,15.08810503,8.27e-05,53.2197,26.2837,81.0393,279.0693,-0.00031456,-5.286e-05,0.0,0 STARLINK-4585,1 53567U 22101AS  23048.21302748 -.00005286  00000-0 -31456-3 0  9991,2 53567  53.2197  26.2837 0000827  81.0393 279.0693 15.08810503 27897,6917.971,95.439,540.408,539.263,0.0
53567.0,STARLINK-4585,PAYLOAD,2023-02-17 13:03:40,15.08827743,7.85e-05,53.2198,24.7965,84.2799,275.8283,-0.00012343,-2.251e-05,0.0,0 STARLINK-4585,1 53567U 22101AS  23048.54421494 -.00002251  00000-0 -12343-3 0  9990,2 53567  53.2198  24.7965 0000785  84.2799 275.8283 15.08827743 27940,6917.918,95.438,540.326,539.24,0.0
53567.0,STARLINK-4585,PAYLOAD,2023-02-17 21:00:35,15.08841357,5.36e-05,53.2199,23.3095,107.5557,252.5493,-0.00012299,-2.244e-05,0.0,0 STARLINK-4585,1 53567U 22101AS  23048.87540598 -.00002244  00000-0 -12299-3 0  9995,2 53567  53.2199  23.3095 0000536 107.5557 252.5493 15.08841357 27992,6917.876,95.437,540.112,539.37,0.0
53567.0,STARLINK-4585,PAYLOAD,2023-02-18 01:46:43,15.08850665,8.33e-05,53.2196,22.4182,91.8348,268.274,6.7614e-05,7.89e-06,0.0,0 STARLINK-4585,1 53567U 22101AS  23049.07411723  .00000789  00000-0  67614-4 0  9997,2 53567  53.2196  22.4182 0000833  91.8348 268.2740 15.08850665 28025,6917.848,95.437,540.289,539.137,0.0
53567.0,STARLINK-4585,PAYLOAD,2023-02-18 11:19:03,15.08837048,8.66e-05,53.2188,20.6337,88.7649,271.3442,-2.0135e-05,-6.08e-06,0.0,0 STARLINK-4585,1 53567U 22101AS  23049.47156715 -.00000608  00000-0 -20135-4 0  9997,2 53567  53.2188  20.6337 0000866  88.7649 271.3442 15.08837048 28083,6917.889,95.438,540.354,539.155,0.0
53567.0,STARLINK-4585,PAYLOAD,2023-02-18 14:29:49,15.08842806,8.8e-05,53.2189,20.0391,104.5331,255.5759,3.8247e-05,3.21e-06,0.0,0 STARLINK-4585,1 53567U 22101AS  23049.60404380  .00000321  00000-0  38247-4 0  9999,2 53567  53.2189  20.0391 0000880 104.5331 255.5759 15.08842806 28105,6917.872,95.437,540.346,539.128,0.0
53567.0,STARLINK-4585,PAYLOAD,2023-02-19 01:37:31,15.08871146,6.86e-05,53.2189,17.957,97.1719,262.9351,0.00069891,0.00010862,0.0,0 STARLINK-4585,1 53567U 22101AS  23050.06772156  .00010862  00000-0  69891-3 0  9999,2 53567  53.2189  17.9570 0000686  97.1719 262.9351 15.08871146 28176,6917.785,95.436,540.125,539.176,0.0
53567.0,STARLINK-4585,PAYLOAD,2023-02-19 11:09:48,15.08898904,7.1e-05,53.2188,16.173,108.2465,251.8605,0.0019788,0.00031396,0.0,0 STARLINK-4585,1 53567U 22101AS  23050.46514916  .00031396  00000-0  19788-2 0  9995,2 53567  53.2188  16.1730 0000710 108.2465 251.8605 15.08898904 28231,6917.7,95.434,540.057,539.074,0.0
53567.0,STARLINK-4585,PAYLOAD,2023-02-19 14:20:35,15.08854796,9.08e-05,53.2188,15.5783,95.0785,265.0311,-0.00042725,-7.084e-05,0.0,0 STARLINK-4585,1 53567U 22101AS  23050.59763383 -.00007084  00000-0 -42725-3 0  9990,2 53567  53.2188  15.5783 0000908  95.0785 265.0311 15.08854796 28253,6917.835,95.437,540.328,539.072,0.0
53567.0,STARLINK-4585,PAYLOAD,2023-02-19 19:06:44,15.08854097,8.84e-05,53.2186,14.6863,98.1414,261.9678,-7.8004e-05,-1.529e-05,0.0,0 STARLINK-4585,1 53567U 22101AS  23050.79635255 -.00001529  00000-0 -78004-4 0  9996,2 53567  53.2186  14.6863 0000884  98.1414 261.9678 15.08854097 28284,6917.837,95.437,540.314,539.091,0.0
53567.0,STARLINK-4585,PAYLOAD,2023-02-20 14:11:22,15.08833174,0.0001022,53.2185,11.1182,86.2151,273.8958,-0.00023865,-4.083e-05,0.0,0 STARLINK-4585,1 53567U 22101AS  23051.59123348 -.00004083  00000-0 -23865-3 0  9992,2 53567  53.2185  11.1182 0001022  86.2151 273.8958 15.08833174 28400,6917.901,95.438,540.473,539.059,0.0
53567.0,STARLINK-4585,PAYLOAD,2023-02-20 17:22:08,15.08833092,9.57e-05,53.2184,10.5236,87.2375,272.8727,-8.2058e-05,-1.593e-05,0.0,0 STARLINK-4585,1 53567U 22101AS  23051.72371416 -.00001593  00000-0 -82058-4 0  9991,2 53567  53.2184  10.5236 0000957  87.2375 272.8727 15.08833092 28421,6917.902,95.438,540.429,539.104,0.0
53567.0,STARLINK-4585,PAYLOAD,2023-02-21 14:02:10,15.08846081,0.0001082,53.2181,6.6582,87.2169,272.8947,0.0012108,0.00019038,0.0,0 STARLINK-4585,1 53567U 22101AS  23052.58483942  .00019038  00000-0  12108-2 0  9992,2 53567  53.2181   6.6582 0001082  87.2169 272.8947 15.08846081 28559,6917.862,95.437,540.475,538.978,0.0
53567.0,STARLINK-4585,PAYLOAD,2023-02-21 20:23:42,15.08866543,9.76e-05,53.218,5.4689,92.6544,267.456,0.0019461,0.00030843,0.0,0 STARLINK-4585,1 53567U 22101AS  23052.84979600  .00030843  00000-0  19461-2 0  9998,2 53567  53.2180   5.4689 0000976  92.6544 267.4560 15.08866543 28591,6917.799,95.436,540.339,538.989,0.0
53567.0,STARLINK-4585,PAYLOAD,2023-02-21 21:59:05,15.08865955,9.96e-05,53.218,5.1713,92.7833,267.3273,0.0017784,0.00028149,0.0,0 STARLINK-4585,1 53567U 22101AS  23052.91603552  .00028149  00000-0  17784-2 0  9998,2 53567  53.2180   5.1713 0000996  92.7833 267.3273 15.08865955 28608,6917.801,95.436,540.355,538.977,0.0
53567.0,STARLINK-4585,PAYLOAD,2023-02-22 10:42:10,15.08825692,0.0001275,53.2178,2.7927,74.4637,285.6495,-0.0016766,-0.00026861,0.0,0 STARLINK-4585,1 53567U 22101AS  23053.44595371 -.00026861  00000-0 -16766-2 0  9996,2 53567  53.2178   2.7927 0001275  74.4637 285.6495 15.08825692 28686,6917.924,95.438,540.671,538.907,0.0
53567.0,STARLINK-4585,PAYLOAD,2023-02-22 20:14:29,15.08819439,0.000127,53.2176,1.0088,77.4276,282.6858,-0.00019256,-3.349e-05,0.0,0 STARLINK-4585,1 53567U 22101AS  23053.84340039 -.00003349  00000-0 -19256-3 0  9993,2 53567  53.2176   1.0088 0001270  77.4276 282.6858 15.08819439 28740,6917.943,95.439,540.687,538.93,0.0
53567.0,STARLINK-4585,PAYLOAD,2023-02-23 02:36:01,15.08894953,0.0001528,53.2177,359.8192,86.3478,273.7689,0.0043791,0.00070206,0.0,0 STARLINK-4585,1 53567U 22101AS  23054.10835095  .00070206  00000-0  43791-2 0  9998,2 53567  53.2177 359.8192 0001528  86.3478 273.7689 15.08894953 28781,6917.712,95.434,540.634,538.52,0.0
